1 39778U 97051AAK 26114.37977145  .00002309  00000+0  52656-3 0  9993
2 39778  86.3797 345.6102 0005531 315.6676  44.4088 14.55435727626213
